start=new Date('2023-02-24T00:00:00.000Z').valueOf();
sats=[{"CENTER_NAME":"EARTH","ELEMENT_SET_NO":"999","SITE":"AFETR","PERIOD":"95.438","ARG_OF_PERICENTER":"90.9049","ECCENTRICITY":"0.00012690","OBJECT_ID":"2022-083F","REV_AT_EPOCH":"3361","CLASSIFICATION_TYPE":"U","TLE_LINE2":"2 53137  53.2116 118.0182 0001269  90.9049 269.2088 15.08836084 33610","EPHEMERIS_TYPE":"0","SEMIMAJOR_AXIS":"6917.892","NORAD_CAT_ID":"53137","OBJECT_NAME":"STARLINK-4145","DECAY_DATE":null,"MEAN_MOTION_DOT":"0.00001051","RA_OF_ASC_NODE":"118.0182","INCLINATION":"53.2116","GP_ID":"226567834","REF_FRAME":"TEME","TLE_LINE1":"1 53137U 22083F   23054.48738446  .00001051  00000-0  84116-4 0  9993","EPOCH":"2023-02-23T11:41:50.017344","OBJECT_TYPE":"PAYLOAD","BSTAR":"0.00008411600000","FILE":"3828819","MEAN_MOTION":"15.08836084","LAUNCH_DATE":"2022-07-17","TIME_SYSTEM":"UTC","RCS_SIZE":"LARGE","APOAPSIS":"540.635","COUNTRY_CODE":"US","MEAN_MOTION_DDOT":"0.0000000000000","MEAN_ELEMENT_THEORY":"SGP4","MEAN_ANOMALY":"269.2088","PERIAPSIS":"538.879"},{"DECAY_DATE":null,"MEAN_MOTION_DOT":"0.00006106","SEMIMAJOR_AXIS":"6917.902","NORAD_CAT_ID":"53138","OBJECT_NAME":"STARLINK-4141","ECCENTRICITY":"0.00008400","ARG_OF_PERICENTER":"121.9905","TLE_LINE2":"2 53138  53.2154 111.3158 0000840 121.9905 238.1168 15.08832936 34361","CLASSIFICATION_TYPE":"U","EPHEMERIS_TYPE":"0","OBJECT_ID":"2022-083G","REV_AT_EPOCH":"3436","ELEMENT_SET_NO":"999","SITE":"AFETR","CENTER_NAME":"EARTH","PERIOD":"95.438","MEAN_ANOMALY":"238.1168","MEAN_MOTION_DDOT":"0.0000000000000","MEAN_ELEMENT_THEORY":"SGP4","PERIAPSIS":"539.186","APOAPSIS":"540.348","RCS_SIZE":"LARGE","TIME_SYSTEM":"UTC","COUNTRY_CODE":"US","MEAN_MOTION":"15.08832936","FILE":"3829318","OBJECT_TYPE":"PAYLOAD","BSTAR":"0.00040146000000","LAUNCH_DATE":"2022-07-17","RA_OF_ASC_NODE":"111.3158","EPOCH":"2023-02-23T20:47:02.514912","INCLINATION":"53.2154","GP_ID":"226580881","TLE_LINE1":"1 53138U 22083G   23054.86600133  .00006106  00000-0  40146-3 0  9997","REF_FRAME":"TEME"},{"RCS_SIZE":"LARGE","APOAPSIS":"540.537","TIME_SYSTEM":"UTC","COUNTRY_CODE":"US","MEAN_ANOMALY":"243.8503","MEAN_ELEMENT_THEORY":"SGP4","MEAN_MOTION_DDOT":"0.0000000000000","PERIAPSIS":"538.962","RA_OF_ASC_NODE":"116.2792","EPOCH":"2023-02-23T20:58:15.170880","TLE_LINE1":"1 53139U 22083H   23054.87378670  .00014200  00000-0  90851-3 0  9999","REF_FRAME":"TEME","INCLINATION":"53.2139","GP_ID":"226603895","FILE":"3830379","MEAN_MOTION":"15.08838573","OBJECT_TYPE":"PAYLOAD","BSTAR":"0.00090851000000","LAUNCH_DATE":"2022-07-17","SEMIMAJOR_AXIS":"6917.885","OBJECT_NAME":"STARLINK-4185","NORAD_CAT_ID":"53139","DECAY_DATE":null,"MEAN_MOTION_DOT":"0.00014200","SITE":"AFETR","ELEMENT_SET_NO":"999","CENTER_NAME":"EARTH","PERIOD":"95.438","ECCENTRICITY":"0.00011380","ARG_OF_PERICENTER":"116.2606","TLE_LINE2":"2 53139  53.2139 116.2792 0001138 116.2606 243.8503 15.08838573 34302","EPHEMERIS_TYPE":"0","CLASSIFICATION_TYPE":"U","REV_AT_EPOCH":"3430","OBJECT_ID":"2022-083H"},{"ELEMENT_SET_NO":"999","SITE":"AFETR","CENTER_NAME":"EARTH","PERIOD":"95.438","ECCENTRICITY":"0.00014510","ARG_OF_PERICENTER":"104.6037","TLE_LINE2":"2 53140  53.2161 117.7483 0001451 104.6037 255.5117 15.08840635 33626","EPHEMERIS_TYPE":"0","CLASSIFICATION_TYPE":"U","REV_AT_EPOCH":"3362","OBJECT_ID":"2022-083J","SEMIMAJOR_AXIS":"6917.878","OBJECT_NAME":"STARLINK-4170","NORAD_CAT_ID":"53140","DECAY_DATE":null,"MEAN_MOTION_DOT":"0.00009751","RA_OF_ASC_NODE":"117.7483","EPOCH":"2023-02-23T13:06:37.449792","REF_FRAME":"TEME","TLE_LINE1":"1 53140U 22083J   23054.54626678  .00009751  00000-0  62990-3 0  9997","INCLINATION":"53.2161","GP_ID":"226569585","FILE":"3828819","MEAN_MOTION":"15.08840635","OBJECT_TYPE":"PAYLOAD","BSTAR":"0.00062990000000","LAUNCH_DATE":"2022-07-17","RCS_SIZE":"LARGE","APOAPSIS":"540.747","TIME_SYSTEM":"UTC","COUNTRY_CODE":"US","MEAN_ANOMALY":"255.5117","MEAN_ELEMENT_THEORY":"SGP4","MEAN_MOTION_DDOT":"0.0000000000000","PERIAPSIS":"538.740"},{"TLE_LINE1":"1 53141U 22083K   23054.85905242 -.00010126  00000-0 -61896-3 0  9993","REF_FRAME":"TEME","INCLINATION":"53.2172","GP_ID":"226581230","EPOCH":"2023-02-23T20:37:02.129088","RA_OF_ASC_NODE":"116.3414","LAUNCH_DATE":"2022-07-17","BSTAR":"-0.00061896000000","OBJECT_TYPE":"PAYLOAD","FILE":"3829332","MEAN_MOTION":"15.08839985","COUNTRY_CODE":"US","TIME_SYSTEM":"UTC","APOAPSIS":"541.420","RCS_SIZE":"LARGE","PERIAPSIS":"538.071","MEAN_ELEMENT_THEORY":"SGP4","MEAN_MOTION_DDOT":"0.0000000000000","MEAN_ANOMALY":"284.1686","PERIOD":"95.438","CENTER_NAME":"EARTH","SITE":"AFETR","ELEMENT_SET_NO":"999","OBJECT_ID":"2022-083K","REV_AT_EPOCH":"3430","EPHEMERIS_TYPE":"0","TLE_LINE2":"2 53141  53.2172 116.3414 0002420  75.9575 284.1686 15.08839985 34303","CLASSIFICATION_TYPE":"U","ARG_OF_PERICENTER":"75.9575","ECCENTRICITY":"0.00024200","OBJECT_NAME":"STARLINK-4103","NORAD_CAT_ID":"53141","SEMIMAJOR_AXIS":"6917.880","MEAN_MOTION_DOT":"-0.00010126","DECAY_DATE":null},{"LAUNCH_DATE":"2022-07-17","FILE":"3828819","MEAN_MOTION":"15.08854475","OBJECT_TYPE":"PAYLOAD","BSTAR":"0.00052679000000","EPOCH":"2023-02-23T09:45:15.266880","GP_ID":"226568584","INCLINATION":"53.2140","TLE_LINE1":"1 53142U 22083L   23054.40642670  .00008109  00000-0  52679-3 0  9993","REF_FRAME":"TEME","RA_OF_ASC_NODE":"118.3788","PERIAPSIS":"538.753","MEAN_ANOMALY":"265.3118","MEAN_MOTION_DDOT":"0.0000000000000","MEAN_ELEMENT_THEORY":"SGP4","COUNTRY_CODE":"US","RCS_SIZE":"LARGE","APOAPSIS":"540.650","TIME_SYSTEM":"UTC","EPHEMERIS_TYPE":"0","TLE_LINE2":"2 53142  53.2140 118.3788 0001371  94.8031 265.3118 15.08854475 33611","CLASSIFICATION_TYPE":"U","OBJECT_ID":"2022-083L","REV_AT_EPOCH":"3361","ECCENTRICITY":"0.00013710","ARG_OF_PERICENTER":"94.8031","PERIOD":"95.437","SITE":"AFETR","ELEMENT_SET_NO":"999","CENTER_NAME":"EARTH","MEAN_MOTION_DOT":"0.00008109","DECAY_DATE":null,"NORAD_CAT_ID":"53142","OBJECT_NAME":"STARLINK-4101","SEMIMAJOR_AXIS":"6917.836"},{"COUNTRY_CODE":"US","RCS_SIZE":"LARGE","APOAPSIS":"541.080","TIME_SYSTEM":"UTC","PERIAPSIS":"538.432","MEAN_ANOMALY":"272.0708","MEAN_ELEMENT_THEORY":"SGP4","MEAN_MOTION_DDOT":"0.0000000000000","EPOCH":"2023-02-23T20:31:45.676128","TLE_LINE1":"1 53143U 22083M   23054.85538977  .00015328  00000-0  97912-3 0  9997","REF_FRAME":"TEME","INCLINATION":"53.2150","GP_ID":"226581224","RA_OF_ASC_NODE":"116.3601","LAUNCH_DATE":"2022-07-17","MEAN_MOTION":"15.08836428","FILE":"3829332","OBJECT_TYPE":"PAYLOAD","BSTAR":"0.00097912000000","OBJECT_NAME":"STARLINK-4102","NORAD_CAT_ID":"53143","SEMIMAJOR_AXIS":"6917.891","MEAN_MOTION_DOT":"0.00015328","DECAY_DATE":null,"PERIOD":"95.438","SITE":"AFETR","ELEMENT_SET_NO":"999","CENTER_NAME":"EARTH","EPHEMERIS_TYPE":"0","TLE_LINE2":"2 53143  53.2150 116.3601 0001914  88.0503 272.0708 15.08836428 34302","CLASSIFICATION_TYPE":"U","REV_AT_EPOCH":"3430","OBJECT_ID":"2022-083M","ECCENTRICITY":"0.00019140","ARG_OF_PERICENTER":"88.0503"},{"MEAN_MOTION_DOT":"0.00028228","DECAY_DATE":null,"OBJECT_NAME":"STARLINK-4100","NORAD_CAT_ID":"53144","SEMIMAJOR_AXIS":"6917.881","REV_AT_EPOCH":"3361","OBJECT_ID":"2022-083N","EPHEMERIS_TYPE":"0","TLE_LINE2":"2 53144  53.2143 118.0977 0001256  96.0878 264.0257 15.08839913 33618","CLASSIFICATION_TYPE":"U","ARG_OF_PERICENTER":"96.0878","ECCENTRICITY":"0.00012560","PERIOD":"95.438","CENTER_NAME":"EARTH","ELEMENT_SET_NO":"999","SITE":"AFETR","PERIAPSIS":"538.877","MEAN_ELEMENT_THEORY":"SGP4","MEAN_MOTION_DDOT":"0.0000000000000","MEAN_ANOMALY":"264.0257","COUNTRY_CODE":"US","TIME_SYSTEM":"UTC","APOAPSIS":"540.615","RCS_SIZE":"LARGE","LAUNCH_DATE":"2022-07-17","OBJECT_TYPE":"PAYLOAD","BSTAR":"0.00178460000000","MEAN_MOTION":"15.08839913","FILE":"3828819","TLE_LINE1":"1 53144U 22083N   23054.46898581  .00028228  00000-0  17846-2 0  9995","REF_FRAME":"TEME","GP_ID":"226569087","INCLINATION":"53.2143","EPOCH":"2023-02-23T11:15:20.373984","RA_OF_ASC_NODE":"118.0977"},{"SITE":"AFETR","ELEMENT_SET_NO":"999","CENTER_NAME":"EARTH","PERIOD":"95.437","ECCENTRICITY":"0.00013590","ARG_OF_PERICENTER":"118.6610","CLASSIFICATION_TYPE":"U","TLE_LINE2":"2 53145  53.2166 117.2846 0001359 118.6610 241.4519 15.08846238 34270","EPHEMERIS_TYPE":"0","OBJECT_ID":"2022-083P","REV_AT_EPOCH":"3427","SEMIMAJOR_AXIS":"6917.861","NORAD_CAT_ID":"53145","OBJECT_NAME":"STARLINK-4106","DECAY_DATE":null,"MEAN_MOTION_DOT":"0.00010520","RA_OF_ASC_NODE":"117.2846","EPOCH":"2023-02-23T15:34:59.521728","GP_ID":"226581532","INCLINATION":"53.2166","TLE_LINE1":"1 53145U 22083P   23054.64930002  .00010520  00000-0  67793-3 0  9994","REF_FRAME":"TEME","MEAN_MOTION":"15.08846238","FILE":"3829349","BSTAR":"0.00067793000000","OBJECT_TYPE":"PAYLOAD","LAUNCH_DATE":"2022-07-17","RCS_SIZE":"MEDIUM","APOAPSIS":"540.666","TIME_SYSTEM":"UTC","COUNTRY_CODE":"US","MEAN_ANOMALY":"241.4519","MEAN_MOTION_DDOT":"0.0000000000000","MEAN_ELEMENT_THEORY":"SGP4","PERIAPSIS":"538.786"},{"OBJECT_NAME":"STARLINK-4099","NORAD_CAT_ID":"53146","SEMIMAJOR_AXIS":"6917.890","MEAN_MOTION_DOT":"-0.00001174","DECAY_DATE":null,"PERIOD":"95.438","CENTER_NAME":"EARTH","SITE":"AFETR","ELEMENT_SET_NO":"999","OBJECT_ID":"2022-083Q","REV_AT_EPOCH":"3360","CLASSIFICATION_TYPE":"U","TLE_LINE2":"2 53146  53.2149 118.4112 0001398 102.7685 257.3463 15.08837001 33608","EPHEMERIS_TYPE":"0","ARG_OF_PERICENTER":"102.7685","ECCENTRICITY":"0.00013980","COUNTRY_CODE":"US","TIME_SYSTEM":"UTC","RCS_SIZE":"LARGE","APOAPSIS":"540.722","PERIAPSIS":"538.787","MEAN_ELEMENT_THEORY":"SGP4","MEAN_MOTION_DDOT":"0.0000000000000","MEAN_ANOMALY":"257.3463","TLE_LINE1":"1 53146U 22083Q   23054.39906334 -.00001174  00000-0 -55687-4 0  9995","REF_FRAME":"TEME","INCLINATION":"53.2149","GP_ID":"226568085","EPOCH":"2023-02-23T09:34:39.072576","RA_OF_ASC_NODE":"118.4112","LAUNCH_DATE":"2022-07-17","BSTAR":"-0.00005568700000","OBJECT_TYPE":"PAYLOAD","MEAN_MOTION":"15.08837001","FILE":"3828819"}];
